[{"OBJECT_NAME":"STARLINK-1482","OBJECT_ID":"2020-038AV","EPOCH":"2026-03-09T14:46:35.385312","MEAN_MOTION":15.30192757,"ECCENTRICITY":0.0001327,"INCLINATION":53.1615,"RA_OF_ASC_NODE":191.3633,"ARG_OF_PERICENTER":89.6348,"MEAN_ANOMALY":270.4805,"EPHEMERIS_TYPE":0,"CLASSIFICATION_TYPE":"U","NORAD_CAT_ID":45773,"ELEMENT_SET_NO":999,"REV_AT_EPOCH":31683,"BSTAR":1.5205e-5,"MEAN_MOTION_DOT":9.1e-7,"MEAN_MOTION_DDOT":0},{"OBJECT_NAME":"OBJECT B","OBJECT_ID":"2024-203B","EPOCH":"2026-03-09T23:52:52.928256","MEAN_MOTION":15.27506959,"ECCENTRICITY":0.00103904,"INCLINATION":97.4268,"RA_OF_ASC_NODE":139.5887,"ARG_OF_PERICENTER":321.1475,"MEAN_ANOMALY":38.9016,"EPHEMERIS_TYPE":0,"CLASSIFICATION_TYPE":"U","NORAD_CAT_ID":61870,"ELEMENT_SET_NO":999,"REV_AT_EPOCH":7381,"BSTAR":0.00063263842,"MEAN_MOTION_DOT":0.00016997,"MEAN_MOTION_DDOT":0}]
